ONEWEB-0035             
1 45143U 20008N   26008.19093622 -.00000580  00000+0 -16985-2 0  9990
2 45143  87.8780  68.1790 0001652 101.4104 258.7209 13.10374251286986
ONEWEB-0036             
1 45144U 20008P   26008.18097481 -.00000493  00000+0 -14483-2 0  9991
2 45144  87.8786  68.1416 0002073 101.0351 259.1010 13.10372749287410
ONEWEB-0038             
1 45145U 20008Q   26008.17454840  .00000384  00000+0  10470-2 0  9996
2 45145  87.8836  52.9198 0001972  43.6387 316.4897 13.11419051289356
ONEWEB-0039             
1 45146U 20008R   26008.16356274  .00000305  00000+0  83818-3 0  9998
2 45146  87.8785  68.1619 0002281  93.6188 266.5200 13.10370789287203
ONEWEB-0040             
1 45147U 20008S   26008.23328935  .00000580  00000+0  16242-2 0  9991
2 45147  87.8777  68.1707 0001776  97.8845 262.2484 13.10372335286910
ONEWEB-0043             
1 45149U 20008U   26008.15858710  .00000491  00000+0  13716-2 0  9997
2 45149  87.8778  68.1671 0002337  93.9318 266.2076 13.10372310287228
ONEWEB-0044             
1 45150U 20008V   26008.18678603 -.00000646  00000+0 -18869-2 0  9991
2 45150  87.8786  68.1537 0002027  99.7038 260.4318 13.10373030287527
ONEWEB-0045             
1 45151U 20008W   26008.16930923  .00000225  00000+0  59981-3 0  9998
2 45151  87.8841  52.9062 0001858  94.2703 265.8637 13.11421968289434
ONEWEB-0047             
1 45152U 20008X   26008.18014479 -.00000489  00000+0 -14377-2 0  9993
2 45152  87.8776  68.1632 0001885 100.1248 260.0092 13.10371133287241
ONEWEB-0048             
1 45153U 20008Y   26008.17516006 -.00000274  00000+0 -82169-3 0  9993
2 45153  87.8773  68.1918 0001707 100.9809 259.1510 13.10369641286851
ONEWEB-0049             
1 45154U 20008Z   26008.17834357 -.00000522  00000+0 -15330-2 0  9997
2 45154  87.8775  68.1796 0002122 109.6259 250.5098 13.10370759287078
ONEWEB-0051             
1 45155U 20008AA  26008.16762341  .00000122  00000+0  30813-3 0  9998
2 45155  87.8826  52.9238 0001797  97.4150 262.7182 13.11419645290116
ONEWEB-0052             
1 45156U 20008AB  26008.17268284 -.00000214  00000+0 -64936-3 0  9994
2 45156  87.8784  68.1438 0002203 109.3113 250.8253 13.10370789286987
ONEWEB-0053             
1 45157U 20008AC  26008.15526733  .00000624  00000+0  17525-2 0  9993
2 45157  87.8778  68.1914 0001925  91.1787 268.9561 13.10372367286958
ONEWEB-0054             
1 45158U 20008AD  26008.19010265 -.00000553  00000+0 -16205-2 0  9993
2 45158  87.8788  68.1566 0001812 103.5371 256.5958 13.10374028287078
ONEWEB-0056             
1 45159U 20008AE  26008.17102111  .00000126  00000+0  32346-3 0  9993
2 45159  87.8782  68.1597 0001819 107.7014 252.4312 13.10372525287220
ONEWEB-0057             
1 45160U 20008AF  26008.17862300 -.00000428  00000+0 -12622-2 0  9999
2 45160  87.8779  68.1706 0002011 101.1830 258.9524 13.10370663287394
